[{"COMMENT":"GENERATED VIA SPACETRACK.ORG API","ORIGINATOR":"18 SPCS","NORAD_CAT_ID":"45120","OBJECT_NAME":"VPM","OBJECT_TYPE":"PAYLOAD","CLASSIFICATION_TYPE":"U","INTLDES":"19071K","EPOCH":"2020-02-15 03:38:53","EPOCH_MICROSECONDS":"823840","MEAN_MOTION":"15.33204939","ECCENTRICITY":"0.0011558","INCLINATION":"51.6414","RA_OF_ASC_NODE":"238.9294","ARG_OF_PERICENTER":"332.3418","MEAN_ANOMALY":"27.6948","EPHEMERIS_TYPE":"0","ELEMENT_SET_NO":"999","REV_AT_EPOCH":"209","BSTAR":"0.000077576","MEAN_MOTION_DOT":"0.00002153","MEAN_MOTION_DDOT":"0","FILE":"2702364","TLE_LINE0":"0 VPM","TLE_LINE1":"1 45120U 19071K   20046.15201185 +.00002153 +00000-0 +77576-4 0  9992","TLE_LINE2":"2 45120 051.6414 238.9294 0011558 332.3418 027.6948 15.33204939002092","OBJECT_ID":"2019-071K","OBJECT_NUMBER":"45120","SEMIMAJOR_AXIS":"6844.394","PERIOD":"93.920","APOGEE":"474.170","PERIGEE":"458.348","DECAYED":"0"},{"COMMENT":"GENERATED VIA SPACETRACK.ORG API","ORIGINATOR":"18 SPCS","NORAD_CAT_ID":"45120","OBJECT_NAME":"VPM","OBJECT_TYPE":"PAYLOAD","CLASSIFICATION_TYPE":"U","INTLDES":"19071K","EPOCH":"2020-02-15 19:17:29","EPOCH_MICROSECONDS":"792256","MEAN_MOTION":"15.33207839","ECCENTRICITY":"0.0011579","INCLINATION":"51.6415","RA_OF_ASC_NODE":"235.7813","ARG_OF_PERICENTER":"334.6729","MEAN_ANOMALY":"25.3684","EPHEMERIS_TYPE":"0","ELEMENT_SET_NO":"999","REV_AT_EPOCH":"219","BSTAR":"0.000083854","MEAN_MOTION_DOT":"0.00002358","MEAN_MOTION_DDOT":"0","FILE":"2702624","TLE_LINE0":"0 VPM","TLE_LINE1":"1 45120U 19071K   20046.80381704  .00002358  00000-0  83854-4 0  9993","TLE_LINE2":"2 45120  51.6415 235.7813 0011579 334.6729  25.3684 15.33207839  2193","OBJECT_ID":"2019-071K","OBJECT_NUMBER":"45120","SEMIMAJOR_AXIS":"6844.385","PERIOD":"93.920","APOGEE":"474.176","PERIGEE":"458.325","DECAYED":"0"},{"COMMENT":"GENERATED VIA SPACETRACK.ORG API","ORIGINATOR":"18 SPCS","NORAD_CAT_ID":"45120","OBJECT_NAME":"VPM","OBJECT_TYPE":"PAYLOAD","CLASSIFICATION_TYPE":"U","INTLDES":"19071K","EPOCH":"2020-02-16 12:29:57","EPOCH_MICROSECONDS":"221952","MEAN_MOTION":"15.3321135","ECCENTRICITY":"0.0011604","INCLINATION":"51.6416","RA_OF_ASC_NODE":"232.3183","ARG_OF_PERICENTER":"337.2519","MEAN_ANOMALY":"22.7947","EPHEMERIS_TYPE":"0","ELEMENT_SET_NO":"999","REV_AT_EPOCH":"230","BSTAR":"0.000089216","MEAN_MOTION_DOT":"0.00002534","MEAN_MOTION_DDOT":"0","FILE":"2703310","TLE_LINE0":"0 VPM","TLE_LINE1":"1 45120U 19071K   20047.52080118 +.00002534 +00000-0 +89216-4 0  9992","TLE_LINE2":"2 45120 051.6416 232.3183 0011604 337.2519 022.7947 15.33211350002301","OBJECT_ID":"2019-071K","OBJECT_NUMBER":"45120","SEMIMAJOR_AXIS":"6844.375","PERIOD":"93.920","APOGEE":"474.182","PERIGEE":"458.298","DECAYED":"0"},{"COMMENT":"GENERATED VIA SPACETRACK.ORG API","ORIGINATOR":"18 SPCS","NORAD_CAT_ID":"45120","OBJECT_NAME":"VPM","OBJECT_TYPE":"PAYLOAD","CLASSIFICATION_TYPE":"U","INTLDES":"19071K","EPOCH":"2020-02-16 14:03:48","EPOCH_MICROSECONDS":"807648","MEAN_MOTION":"15.33211442","ECCENTRICITY":"0.0011604","INCLINATION":"51.6416","RA_OF_ASC_NODE":"232.0035","ARG_OF_PERICENTER":"337.4865","MEAN_ANOMALY":"22.5606","EPHEMERIS_TYPE":"0","ELEMENT_SET_NO":"999","REV_AT_EPOCH":"231","BSTAR":"0.000087826","MEAN_MOTION_DOT":"0.00002488","MEAN_MOTION_DDOT":"0","FILE":"2703640","TLE_LINE0":"0 VPM","TLE_LINE1":"1 45120U 19071K   20047.58598157 +.00002488 +00000-0 +87826-4 0  9998","TLE_LINE2":"2 45120 051.6416 232.0035 0011604 337.4865 022.5606 15.33211442002313","OBJECT_ID":"2019-071K","OBJECT_NUMBER":"45120","SEMIMAJOR_AXIS":"6844.375","PERIOD":"93.920","APOGEE":"474.182","PERIGEE":"458.297","DECAYED":"0"},{"COMMENT":"GENERATED VIA SPACETRACK.ORG API","ORIGINATOR":"18 SPCS","NORAD_CAT_ID":"45120","OBJECT_NAME":"VPM","OBJECT_TYPE":"PAYLOAD","CLASSIFICATION_TYPE":"U","INTLDES":"19071K","EPOCH":"2020-02-17 01:00:49","EPOCH_MICROSECONDS":"664736","MEAN_MOTION":"15.33214361","ECCENTRICITY":"0.0011635","INCLINATION":"51.6429","RA_OF_ASC_NODE":"229.7998","ARG_OF_PERICENTER":"339.2964","MEAN_ANOMALY":"20.7545","EPHEMERIS_TYPE":"0","ELEMENT_SET_NO":"999","REV_AT_EPOCH":"238","BSTAR":"0.000074763","MEAN_MOTION_DOT":"0.00002062","MEAN_MOTION_DDOT":"0","FILE":"2703837","TLE_LINE0":"0 VPM","TLE_LINE1":"1 45120U 19071K   20048.04224149  .00002062  00000-0  74763-4 0  9991","TLE_LINE2":"2 45120  51.6429 229.7998 0011635 339.2964  20.7545 15.33214361  2384","OBJECT_ID":"2019-071K","OBJECT_NUMBER":"45120","SEMIMAJOR_AXIS":"6844.366","PERIOD":"93.920","APOGEE":"474.194","PERIGEE":"458.268","DECAYED":"0"},{"COMMENT":"GENERATED VIA SPACETRACK.ORG API","ORIGINATOR":"18 SPCS","NORAD_CAT_ID":"45120","OBJECT_NAME":"VPM","OBJECT_TYPE":"PAYLOAD","CLASSIFICATION_TYPE":"U","INTLDES":"19071K","EPOCH":"2020-02-17 11:57:50","EPOCH_MICROSECONDS":"629824","MEAN_MOTION":"15.33216269","ECCENTRICITY":"0.0011648","INCLINATION":"51.6429","RA_OF_ASC_NODE":"227.5961","ARG_OF_PERICENTER":"340.9469","MEAN_ANOMALY":"19.1076","EPHEMERIS_TYPE":"0","ELEMENT_SET_NO":"999","REV_AT_EPOCH":"245","BSTAR":"0.000075621","MEAN_MOTION_DOT":"0.0000209","MEAN_MOTION_DDOT":"0","FILE":"2704250","TLE_LINE0":"0 VPM","TLE_LINE1":"1 45120U 19071K   20048.49850266 +.00002090 +00000-0 +75621-4 0  9990","TLE_LINE2":"2 45120 051.6429 227.5961 0011648 340.9469 019.1076 15.33216269002451","OBJECT_ID":"2019-071K","OBJECT_NUMBER":"45120","SEMIMAJOR_AXIS":"6844.360","PERIOD":"93.920","APOGEE":"474.198","PERIGEE":"458.253","DECAYED":"0"},{"COMMENT":"GENERATED VIA SPACETRACK.ORG API","ORIGINATOR":"18 SPCS","NORAD_CAT_ID":"45120","OBJECT_NAME":"VPM","OBJECT_TYPE":"PAYLOAD","CLASSIFICATION_TYPE":"U","INTLDES":"19071K","EPOCH":"2020-02-17 19:47:08","EPOCH_MICROSECONDS":"389824","MEAN_MOTION":"15.33217858","ECCENTRICITY":"0.0011658","INCLINATION":"51.6429","RA_OF_ASC_NODE":"226.0221","ARG_OF_PERICENTER":"342.1288","MEAN_ANOMALY":"17.9282","EPHEMERIS_TYPE":"0","ELEMENT_SET_NO":"999","REV_AT_EPOCH":"250","BSTAR":"0.000076445","MEAN_MOTION_DOT":"0.00002117","MEAN_MOTION_DDOT":"0","FILE":"2704550","TLE_LINE0":"0 VPM","TLE_LINE1":"1 45120U 19071K   20048.82440266 +.00002117 +00000-0 +76445-4 0  9997","TLE_LINE2":"2 45120 051.6429 226.0221 0011658 342.1288 017.9282 15.33217858002504","OBJECT_ID":"2019-071K","OBJECT_NUMBER":"45120","SEMIMAJOR_AXIS":"6844.356","PERIOD":"93.920","APOGEE":"474.200","PERIGEE":"458.241","DECAYED":"0"},{"COMMENT":"GENERATED VIA SPACETRACK.ORG API","ORIGINATOR":"18 SPCS","NORAD_CAT_ID":"45120","OBJECT_NAME":"VPM","OBJECT_TYPE":"PAYLOAD","CLASSIFICATION_TYPE":"U","INTLDES":"19071K","EPOCH":"2020-02-18 02:02:34","EPOCH_MICROSECONDS":"595232","MEAN_MOTION":"15.33218684","ECCENTRICITY":"0.0011669","INCLINATION":"51.6429","RA_OF_ASC_NODE":"224.7628","ARG_OF_PERICENTER":"343.0721","MEAN_ANOMALY":"16.987","EPHEMERIS_TYPE":"0","ELEMENT_SET_NO":"999","REV_AT_EPOCH":"254","BSTAR":"0.000074675","MEAN_MOTION_DOT":"0.00002059","MEAN_MOTION_DDOT":"0","FILE":"2704754","TLE_LINE0":"0 VPM","TLE_LINE1":"1 45120U 19071K   20049.08512263  .00002059  00000-0  74675-4 0  9991","TLE_LINE2":"2 45120  51.6429 224.7628 0011669 343.0721  16.9870 15.33218684  2548","OBJECT_ID":"2019-071K","OBJECT_NUMBER":"45120","SEMIMAJOR_AXIS":"6844.353","PERIOD":"93.920","APOGEE":"474.205","PERIGEE":"458.231","DECAYED":"0"},{"COMMENT":"GENERATED VIA SPACETRACK.ORG API","ORIGINATOR":"18 SPCS","NORAD_CAT_ID":"45120","OBJECT_NAME":"VPM","OBJECT_TYPE":"PAYLOAD","CLASSIFICATION_TYPE":"U","INTLDES":"19071K","EPOCH":"2020-02-18 12:59:35","EPOCH_MICROSECONDS":"375424","MEAN_MOTION":"15.33221167","ECCENTRICITY":"0.0011682","INCLINATION":"51.6429","RA_OF_ASC_NODE":"222.5591","ARG_OF_PERICENTER":"344.7064","MEAN_ANOMALY":"15.3563","EPHEMERIS_TYPE":"0","ELEMENT_SET_NO":"999","REV_AT_EPOCH":"261","BSTAR":"0.000076059","MEAN_MOTION_DOT":"0.00002104","MEAN_MOTION_DDOT":"0","FILE":"2705151","TLE_LINE0":"0 VPM","TLE_LINE1":"1 45120U 19071K   20049.54138166 +.00002104 +00000-0 +76059-4 0  9997","TLE_LINE2":"2 45120 051.6429 222.5591 0011682 344.7064 015.3563 15.33221167002616","OBJECT_ID":"2019-071K","OBJECT_NUMBER":"45120","SEMIMAJOR_AXIS":"6844.346","PERIOD":"93.919","APOGEE":"474.206","PERIGEE":"458.215","DECAYED":"0"},{"COMMENT":"GENERATED VIA SPACETRACK.ORG API","ORIGINATOR":"18 SPCS","NORAD_CAT_ID":"45120","OBJECT_NAME":"VPM","OBJECT_TYPE":"PAYLOAD","CLASSIFICATION_TYPE":"U","INTLDES":"19071K","EPOCH":"2020-02-18 22:22:44","EPOCH_MICROSECONDS":"497344","MEAN_MOTION":"15.33224013","ECCENTRICITY":"0.00117","INCLINATION":"51.6429","RA_OF_ASC_NODE":"220.6703","ARG_OF_PERICENTER":"346.1228","MEAN_ANOMALY":"13.9431","EPHEMERIS_TYPE":"0","ELEMENT_SET_NO":"999","REV_AT_EPOCH":"267","BSTAR":"0.000079174","MEAN_MOTION_DOT":"0.00002206","MEAN_MOTION_DDOT":"0","FILE":"2705515","TLE_LINE0":"0 VPM","TLE_LINE1":"1 45120U 19071K   20049.93245946 +.00002206 +00000-0 +79174-4 0  9999","TLE_LINE2":"2 45120 051.6429 220.6703 0011700 346.1228 013.9431 15.33224013002676","OBJECT_ID":"2019-071K","OBJECT_NUMBER":"45120","SEMIMAJOR_AXIS":"6844.337","PERIOD":"93.919","APOGEE":"474.210","PERIGEE":"458.194","DECAYED":"0"},{"COMMENT":"GENERATED VIA SPACETRACK.ORG API","ORIGINATOR":"18 SPCS","NORAD_CAT_ID":"45120","OBJECT_NAME":"VPM","OBJECT_TYPE":"PAYLOAD","CLASSIFICATION_TYPE":"U","INTLDES":"19071K","EPOCH":"2020-02-19 10:53:36","EPOCH_MICROSECONDS":"718080","MEAN_MOTION":"15.33229456","ECCENTRICITY":"0.0011752","INCLINATION":"51.6418","RA_OF_ASC_NODE":"218.1516","ARG_OF_PERICENTER":"347.9732","MEAN_ANOMALY":"12.0967","EPHEMERIS_TYPE":"0","ELEMENT_SET_NO":"999","REV_AT_EPOCH":"275","BSTAR":"0.00010718","MEAN_MOTION_DOT":"0.00003122","MEAN_MOTION_DDOT":"0","FILE":"2706201","TLE_LINE0":"0 VPM","TLE_LINE1":"1 45120U 19071K   20050.45389720  .00003122  00000-0  10718-3 0  9993","TLE_LINE2":"2 45120  51.6418 218.1516 0011752 347.9732  12.0967 15.33229456  2753","OBJECT_ID":"2019-071K","OBJECT_NUMBER":"45120","SEMIMAJOR_AXIS":"6844.321","PERIOD":"93.919","APOGEE":"474.230","PERIGEE":"458.143","DECAYED":"0"}]